NORAD_CAT_ID,OBJECT_NAME,OBJECT_TYPE,EPOCH,MEAN_MOTION,ECCENTRICITY,INCLINATION,RA_OF_ASC_NODE,ARG_OF_PERICENTER,MEAN_ANOMALY,BSTAR,MEAN_MOTION_DOT,MEAN_MOTION_DDOT,TLE_LINE0,TLE_LINE1,TLE_LINE2,SEMIMAJOR_AXIS,PERIOD,APOGEE,PERIGEE,DECAYED
56496.0,STARLINK-5526,PAYLOAD,2024-06-25 05:03:06,14.98318108,0.0002991,69.9985,233.8433,270.1647,89.9169,0.00013719,1.544e-05,0.0,0 STARLINK-5526,1 56496U 23064BA  24177.21049140  .00001544  00000-0  13719-3 0  9995,2 56496  69.9985 233.8433 0002991 270.1647  89.9169 14.98318108 63354,6950.23,96.108,574.173,570.016,0.0
56496.0,STARLINK-5526,PAYLOAD,2024-06-25 13:03:46,14.98321729,0.0002955,69.9989,233.0021,268.6269,91.4551,0.00017204,1.96e-05,0.0,0 STARLINK-5526,1 56496U 23064BA  24177.54429136  .00001960  00000-0  17204-3 0  9993,2 56496  69.9989 233.0021 0002955 268.6269  91.4551 14.98321729 63047,6950.218,96.108,574.137,570.03,0.0
56496.0,STARLINK-5526,PAYLOAD,2024-06-26 05:05:06,14.98338516,0.0003106,69.9988,231.3187,267.9044,92.1759,0.00022246,2.563e-05,0.0,0 STARLINK-5526,1 56496U 23064BA  24178.21188023  .00002563  00000-0  22246-3 0  9997,2 56496  69.9988 231.3187 0003106 267.9044  92.1759 14.98338516 63503,6950.167,96.106,574.19,569.873,0.0
56496.0,STARLINK-5526,PAYLOAD,2024-06-26 11:29:38,14.98341114,0.000312,69.9988,230.6454,267.5633,92.5169,0.00025604,2.964e-05,0.0,0 STARLINK-5526,1 56496U 23064BA  24178.47891853  .00002964  00000-0  25604-3 0  9993,2 56496  69.9988 230.6454 0003120 267.5633  92.5169 14.98341114 63189,6950.159,96.106,574.192,569.855,0.0
56496.0,STARLINK-5526,PAYLOAD,2024-06-27 05:07:08,14.9832882,0.0002535,70.001,228.7979,240.1036,119.9871,0.00013592,1.529e-05,0.0,0 STARLINK-5526,1 56496U 23064BA  24179.21328876  .00001529  00000-0  13592-3 0  9995,2 56496  70.0010 228.7979 0002535 240.1036 119.9871 14.98328820 63656,6950.197,96.107,573.823,570.3,0.0
56496.0,STARLINK-5526,PAYLOAD,2024-06-27 13:07:49,14.98322181,0.0003146,69.9991,227.954,270.6445,89.4353,-4.3234e-05,-6.09e-06,0.0,0 STARLINK-5526,1 56496U 23064BA  24179.54709723 -.00000609  00000-0 -43234-4 0  9992,2 56496  69.9991 227.9540 0003146 270.6445  89.4353 14.98322181 63703,6950.217,96.108,574.269,569.896,0.0
56496.0,STARLINK-5526,PAYLOAD,2024-06-28 05:09:09,14.98332119,0.000335,69.9984,226.2682,272.0842,87.9933,-4.2806e-05,-6.04e-06,0.0,0 STARLINK-5526,1 56496U 23064BA  24180.21469129 -.00000604  00000-0 -42806-4 0  9990,2 56496  69.9984 226.2682 0003350 272.0842  87.9933 14.98332119 63808,6950.186,96.107,574.38,569.723,0.0
56496.0,STARLINK-5526,PAYLOAD,2024-06-28 13:09:49,14.98310745,0.0003096,69.9986,225.427,274.7951,85.2855,0.00053924,6.344e-05,0.0,0 STARLINK-5526,1 56496U 23064BA  24180.54849352  .00006344  00000-0  53924-3 0  9993,2 56496  69.9986 225.4270 0003096 274.7951  85.2855 14.98310745 63491,6950.252,96.108,574.269,569.966,0.0
56496.0,STARLINK-5526,PAYLOAD,2024-06-29 13:11:50,14.98326788,0.0003174,69.9988,222.9025,272.568,87.5116,0.00018495,2.114e-05,0.0,0 STARLINK-5526,1 56496U 23064BA  24181.54989212  .00002114  00000-0  18495-3 0  9999,2 56496  69.9988 222.9025 0003174 272.5680  87.5116 14.98326788 64002,6950.203,96.107,574.274,569.862,0.0
56496.0,STARLINK-5526,PAYLOAD,2024-06-29 19:36:23,14.98325508,0.0003181,69.9989,222.2287,273.7938,86.2857,0.00010524,1.163e-05,0.0,0 STARLINK-5526,1 56496U 23064BA  24181.81693543  .00001163  00000-0  10524-3 0  9996,2 56496  69.9989 222.2287 0003181 273.7938  86.2857 14.98325508 63683,6950.207,96.107,574.283,569.861,0.0
56496.0,STARLINK-5526,PAYLOAD,2024-06-30 11:37:43,14.98327767,0.0003084,69.9988,220.5461,272.2143,87.8663,1.2986e-05,6.2e-07,0.0,0 STARLINK-5526,1 56496U 23064BA  24182.48453702  .00000062  00000-0  12986-4 0  9993,2 56496  69.9988 220.5461 0003084 272.2143  87.8663 14.98327767 63783,6950.2,96.107,574.208,569.921,0.0
56496.0,STARLINK-5526,PAYLOAD,2024-06-30 19:38:24,14.98330275,0.0003078,69.9988,219.7045,271.6268,88.4538,4.7382e-05,4.72e-06,0.0,0 STARLINK-5526,1 56496U 23064BA  24182.81833497  .00000472  00000-0  47382-4 0  9996,2 56496  69.9988 219.7045 0003078 271.6268  88.4538 14.98330275 64197,6950.192,96.107,574.196,569.918,0.0
56496.0,STARLINK-5526,PAYLOAD,2024-07-01 13:15:52,14.98334812,0.0003154,69.9986,217.8526,268.8398,91.24,9.9199e-05,1.091e-05,0.0,0 STARLINK-5526,1 56496U 23064BA  24183.55268982  .00001091  00000-0  99199-4 0  9990,2 56496  69.9986 217.8526 0003154 268.8398  91.2400 14.98334812 63948,6950.178,96.107,574.235,569.851,0.0
56496.0,STARLINK-5526,PAYLOAD,2024-07-02 05:17:15,14.98304286,0.0002824,70.0001,216.168,250.3197,109.7657,1.7259e-06,-7.2e-07,0.0,0 STARLINK-5526,1 56496U 23064BA  24184.22031881 -.00000072  00000-0  17259-5 0  9998,2 56496  70.0001 216.1680 0002824 250.3197 109.7657 14.98304286 64401,6950.272,96.109,574.1,570.175,0.0
56496.0,STARLINK-5526,PAYLOAD,2024-07-02 11:41:46,14.9832385,0.0003212,69.9984,215.4959,268.9903,91.0888,5.7446e-05,5.92e-06,0.0,0 STARLINK-5526,1 56496U 23064BA  24184.48734864  .00000592  00000-0  57446-4 0  9994,2 56496  69.9984 215.4959 0003212 268.9903  91.0888 14.98323850 64442,6950.212,96.107,574.309,569.845,0.0
56496.0,STARLINK-5526,PAYLOAD,2024-07-03 11:43:47,14.98332005,0.0003195,69.9984,212.9709,267.9836,92.0958,9.5309e-05,1.044e-05,0.0,0 STARLINK-5526,1 56496U 23064BA  24185.48874618  .00001044  00000-0  95309-4 0  9990,2 56496  69.9984 212.9709 0003195 267.9836  92.0958 14.98332005 64598,6950.187,96.107,574.272,569.831,0.0
56496.0,STARLINK-5526,PAYLOAD,2024-07-03 19:44:27,14.98336948,0.0003252,69.9984,212.1292,275.8366,84.2422,6.463e-05,6.78e-06,0.0,0 STARLINK-5526,1 56496U 23064BA  24185.82254412  .00000678  00000-0  64630-4 0  9997,2 56496  69.9984 212.1292 0003252 275.8366  84.2422 14.98336948 64282,6950.171,96.107,574.297,569.776,0.0
56496.0,STARLINK-5526,PAYLOAD,2024-07-04 11:45:48,14.98340531,0.0003231,69.9992,210.4459,268.8287,91.2502,0.00025929,3.003e-05,0.0,0 STARLINK-5526,1 56496U 23064BA  24186.49014412  .00003003  00000-0  25929-3 0  9997,2 56496  69.9992 210.4459 0003231 268.8287  91.2502 14.98340531 64749,6950.16,96.106,574.271,569.78,0.0
56496.0,STARLINK-5526,PAYLOAD,2024-07-05 11:47:48,14.98350842,0.0003261,69.9991,207.921,268.5249,91.5537,0.0003001,3.491e-05,0.0,0 STARLINK-5526,1 56496U 23064BA  24187.49153121  .00003491  00000-0  30010-3 0  9997,2 56496  69.9991 207.9210 0003261 268.5249  91.5537 14.98350842 64895,6950.128,96.106,574.26,569.727,0.0
56496.0,STARLINK-5526,PAYLOAD,2024-07-05 18:12:20,14.98344426,0.0003226,69.9992,207.2476,268.6644,91.4145,0.00012671,1.42e-05,0.0,0 STARLINK-5526,1 56496U 23064BA  24187.75857169  .00001420  00000-0  12671-3 0  9992,2 56496  69.9992 207.2476 0003226 268.6644  91.4145 14.98344426 64574,6950.148,96.106,574.255,569.771,0.0
56496.0,STARLINK-5526,PAYLOAD,2024-07-06 05:25:16,14.98339538,0.0003152,69.9996,206.0695,269.2131,90.8667,-3.6289e-05,-5.26e-06,0.0,0 STARLINK-5526,1 56496U 23064BA  24188.22589033 -.00000526  00000-0 -36289-4 0  9997,2 56496  69.9996 206.0695 0003152 269.2131  90.8667 14.98339538 65003,6950.163,96.106,574.219,569.838,0.0
56496.0,STARLINK-5526,PAYLOAD,2024-07-06 11:49:49,14.98336641,0.0003119,69.999,205.3963,268.6891,91.391,-3.1831e-08,-9.3e-07,0.0,0 STARLINK-5526,1 56496U 23064BA  24188.49293304 -.00000093  00000-0 -31831-7 0  9999,2 56496  69.9990 205.3963 0003119 268.6891  91.3910 14.98336641 64688,6950.172,96.107,574.205,569.87,0.0
56496.0,STARLINK-5526,PAYLOAD,2024-07-06 18:14:21,14.98336537,0.0003117,69.9991,204.723,269.0613,91.0189,-1.7343e-05,-3e-06,0.0,0 STARLINK-5526,1 56496U 23064BA  24188.75997191 -.00000300  00000-0 -17343-4 0  9993,2 56496  69.9991 204.7230 0003117 269.0613  91.0189 14.98336537 64728,6950.173,96.107,574.204,569.871,0.0
56496.0,STARLINK-5526,PAYLOAD,2024-07-07 05:27:17,14.98338193,0.0003102,69.9992,203.5448,269.1592,90.9212,-5.161e-05,-7.09e-06,0.0,0 STARLINK-5526,1 56496U 23064BA  24189.22728878 -.00000709  00000-0 -51610-4 0  9998,2 56496  69.9992 203.5448 0003102 269.1592  90.9212 14.98338193 65151,6950.168,96.106,574.188,569.877,0.0
56496.0,STARLINK-5526,PAYLOAD,2024-07-07 10:15:42,14.98335834,0.0003124,69.9992,203.0399,268.8042,91.2759,-8.0049e-05,-1.048e-05,0.0,0 STARLINK-5526,1 56496U 23064BA  24189.42756979 -.00001048  00000-0 -80049-4 0  9998,2 56496  69.9992 203.0399 0003124 268.8042  91.2759 14.98335834 64823,6950.175,96.107,574.211,569.869,0.0
56496.0,STARLINK-5526,PAYLOAD,2024-07-08 10:17:42,14.98331693,0.0003212,69.9991,200.5149,268.8451,91.234,2.9571e-05,2.6e-06,0.0,0 STARLINK-5526,1 56496U 23064BA  24190.42896739  .00000260  00000-0  29571-4 0  9995,2 56496  69.9991 200.5149 0003212 268.8451  91.2340 14.98331693 65331,6950.188,96.107,574.285,569.82,0.0
56496.0,STARLINK-5526,PAYLOAD,2024-07-08 18:18:23,14.98331175,0.0003242,69.9991,199.6731,269.1224,90.9564,2.8696e-05,2.49e-06,0.0,0 STARLINK-5526,1 56496U 23064BA  24190.76276753  .00000249  00000-0  28696-4 0  9994,2 56496  69.9991 199.6731 0003242 269.1224  90.9564 14.98331175 65026,6950.189,96.107,574.308,569.801,0.0
56496.0,STARLINK-5526,PAYLOAD,2024-07-09 10:19:43,14.98331223,0.0003242,69.999,197.99,269.2312,90.8476,4.68e-05,4.65e-06,0.0,0 STARLINK-5526,1 56496U 23064BA  24191.43036677  .00000465  00000-0  46800-4 0  9995,2 56496  69.9990 197.9900 0003242 269.2312  90.8476 14.98331223 65488,6950.189,96.107,574.307,569.801,0.0
56496.0,STARLINK-5526,PAYLOAD,2024-07-10 10:21:44,14.98329651,0.0003238,69.999,195.4653,269.3795,90.6993,2.0062e-05,1.46e-06,0.0,0 STARLINK-5526,1 56496U 23064BA  24192.43176880  .00000146  00000-0  20062-4 0  9995,2 56496  69.9990 195.4653 0003238 269.3795  90.6993 14.98329651 65638,6950.194,96.107,574.309,569.808,0.0
56496.0,STARLINK-5526,PAYLOAD,2024-07-11 10:23:45,14.98335142,0.00032,69.9992,192.9408,269.2379,90.8413,8.1782e-05,8.83e-06,0.0,0 STARLINK-5526,1 56496U 23064BA  24193.43316310  .00000883  00000-0  81782-4 0  9994,2 56496  69.9992 192.9408 0003200 269.2379  90.8413 14.98335142 65424,6950.177,96.107,574.266,569.818,0.0
